{
    "links": {
        "self": "http://www.neowsapp.com/rest/v1/neo/3694527?api_key=iIulBulltgU6a56xZRHN4H3l9WmuAYTsLGpBGhQ2"
    },
    "id": "3694527",
    "neo_reference_id": "3694527",
    "name": "(2014 UK114)",
    "designation": "2014 UK114",
    "nasa_jpl_url": "http://ssd.jpl.nasa.gov/sbdb.cgi?sstr=3694527",
    "absolute_magnitude_h": 24.8,
    "estimated_diameter": {
        "kilometers": {
            "estimated_diameter_min": 0.0291443905,
            "estimated_diameter_max": 0.0651688382
        },
        "meters": {
            "estimated_diameter_min": 29.1443904535,
            "estimated_diameter_max": 65.1688382168
        },
        "miles": {
            "estimated_diameter_min": 0.018109479,
            "estimated_diameter_max": 0.0404940262
        },
        "feet": {
            "estimated_diameter_min": 95.6180819754,
            "estimated_diameter_max": 213.8085311752
        }
    },
    "is_potentially_hazardous_asteroid": false,
    "close_approach_data": [
        {
            "close_approach_date": "1934-11-04",
            "close_approach_date_full": "1934-Nov-04 03:05",
            "epoch_date_close_approach": -1109537700000,
            "relative_velocity": {
                "kilometers_per_second": "9.9986733323",
                "kilometers_per_hour": "35995.2239963415",
                "miles_per_hour": "22366.0323770601"
            },
            "miss_distance": {
                "astronomical": "0.4114093596",
                "lunar": "160.0382408844",
                "kilometers": "61545963.894224052",
                "miles": "38242888.6175618376"
            },
            "orbiting_body": "Earth"
        },
        {
            "close_approach_date": "2014-10-25",
            "close_approach_date_full": "2014-Oct-25 03:25",
            "epoch_date_close_approach": 1414207500000,
            "relative_velocity": {
                "kilometers_per_second": "4.9194498013",
                "kilometers_per_hour": "17710.0192845364",
                "miles_per_hour": "11004.3172604388"
            },
            "miss_distance": {
                "astronomical": "0.137757547",
                "lunar": "53.587685783",
                "kilometers": "20608235.60762489",
                "miles": "12805363.813967882"
            },
            "orbiting_body": "Earth"
        }
    ],
    "orbital_data": {
        "orbit_id": "6",
        "orbit_determination_date": "2017-04-06 08:37:52",
        "first_observation_date": "2014-10-25",
        "last_observation_date": "2014-11-26",
        "data_arc_in_days": 32,
        "observations_used": 24,
        "orbit_uncertainty": "8",
        "minimum_orbit_intersection": ".13773",
        "jupiter_tisserand_invariant": "3.230",
        "epoch_osculation": "2456958.5",
        "eccentricity": ".5501530004055495",
        "semi_major_axis": "2.515556374342364",
        "inclination": "1.018738705445278",
        "ascending_node_longitude": "65.77391668181842",
        "orbital_period": "1457.30182415197",
        "perihelion_distance": "1.131615487308607",
        "perihelion_argument": "327.6546889790246",
        "aphelion_distance": "3.899497261376122",
        "perihelion_time": "2456957.621832226290",
        "mean_anomaly": ".2169354304620924",
        "mean_motion": ".2470318735856181",
        "equinox": "J2000",
        "orbit_class": {
            "orbit_class_type": "AMO",
            "orbit_class_description": "Near-Earth asteroid orbits similar to that of 1221 Amor",
            "orbit_class_range": "1.017 AU < q (perihelion) < 1.3 AU"
        }
    },
    "is_sentry_object": false
}